ONEWEB-0545             
1 54647U 22166F   24317.08493322  .00000165  00000+0  36898-3 0  9999
2 54647  87.9325 359.9526 0002331 101.5330 258.6066 13.21824980 95075
ONEWEB-0580             
1 54648U 22166G   24316.83102285  .00000055  00000+0  10276-3 0  9997
2 54648  87.9331 359.9826 0002136 108.4518 251.6848 13.21828771 95076
ONEWEB-0582             
1 54649U 22166H   24317.10068513  .00000006  00000+0 -15995-4 0  9995
2 54649  87.9329 359.9618 0002140 113.5492 246.5867 13.21829877 95090
ONEWEB-0583             
1 54650U 22166J   24317.41452330  .00000036  00000+0  55771-4 0  9993
2 54650  87.9327 359.8974 0001952  96.8860 263.2496 13.21827267 95158
ONEWEB-0584             
1 54651U 22166K   24317.35932797  .00000055  00000+0  10274-3 0  9996
2 54651  87.9331 359.8815 0002028 110.8405 249.2947 13.21827538 95128
ONEWEB-0585             
1 54652U 22166L   24317.08176613  .00000691  00000+0  16409-2 0  9995
2 54652  87.9319 359.9464 0001789  95.0194 265.1144 13.21832693 95098
ONEWEB-0586             
1 54653U 22166M   24317.39718671  .00000090  00000+0  18614-3 0  9990
2 54653  87.9328 359.8918 0002043 101.4374 258.6990 13.21825376 95139
ONEWEB-0587             
1 54654U 22166N   24317.40663156  .00000037  00000+0  56937-4 0  9992
2 54654  87.9327 359.8427 0001745  90.6055 269.5279 13.21828955 95280
