<?xml version="1.0" encoding="UTF-8"?>
<ndm xmlns:xsi="http://www.w3.org/2001/XMLSchema-instance" xsi:noNamespaceSchemaLocation="https://sanaregistry.org/r/ndmxml_unqualified/ndmxml-2.0.0-master-2.0.xsd">
<omm id="CCSDS_OMM_VERS" version="2.0">
<header><CREATION_DATE/><ORIGINATOR/></header><body><segment><metadata><OBJECT_NAME>ONEWEB-0545</OBJECT_NAME><OBJECT_ID>2022-166F</OBJECT_ID><CENTER_NAME>EARTH</CENTER_NAME><REF_FRAME>TEME</REF_FRAME><TIME_SYSTEM>UTC</TIME_SYSTEM><MEAN_ELEMENT_THEORY>SGP4</MEAN_ELEMENT_THEORY></metadata><data><meanElements><EPOCH>2024-11-12T02:02:18.230208</EPOCH><MEAN_MOTION>13.21824980</MEAN_MOTION><ECCENTRICITY>.0002331</ECCENTRICITY><INCLINATION>87.9325</INCLINATION><RA_OF_ASC_NODE>359.9526</RA_OF_ASC_NODE><ARG_OF_PERICENTER>101.5330</ARG_OF_PERICENTER><MEAN_ANOMALY>258.6066</MEAN_ANOMALY></meanElements><tleParameters><EPHEMERIS_TYPE>0</EPHEMERIS_TYPE><CLASSIFICATION_TYPE>U</CLASSIFICATION_TYPE><NORAD_CAT_ID>54647</NORAD_CAT_ID><ELEMENT_SET_NO>999</ELEMENT_SET_NO><REV_AT_EPOCH>9507</REV_AT_EPOCH><BSTAR>.36898E-3</BSTAR><MEAN_MOTION_DOT>.165E-5</MEAN_MOTION_DOT><MEAN_MOTION_DDOT>0</MEAN_MOTION_DDOT></tleParameters></data></segment></body></omm>
<omm id="CCSDS_OMM_VERS" version="2.0">
<header><CREATION_DATE/><ORIGINATOR/></header><body><segment><metadata><OBJECT_NAME>ONEWEB-0580</OBJECT_NAME><OBJECT_ID>2022-166G</OBJECT_ID><CENTER_NAME>EARTH</CENTER_NAME><REF_FRAME>TEME</REF_FRAME><TIME_SYSTEM>UTC</TIME_SYSTEM><MEAN_ELEMENT_THEORY>SGP4</MEAN_ELEMENT_THEORY></metadata><data><meanElements><EPOCH>2024-11-11T19:56:40.374240</EPOCH><MEAN_MOTION>13.21828771</MEAN_MOTION><ECCENTRICITY>.0002136</ECCENTRICITY><INCLINATION>87.9331</INCLINATION><RA_OF_ASC_NODE>359.9826</RA_OF_ASC_NODE><ARG_OF_PERICENTER>108.4518</ARG_OF_PERICENTER><MEAN_ANOMALY>251.6848</MEAN_ANOMALY></meanElements><tleParameters><EPHEMERIS_TYPE>0</EPHEMERIS_TYPE><CLASSIFICATION_TYPE>U</CLASSIFICATION_TYPE><NORAD_CAT_ID>54648</NORAD_CAT_ID><ELEMENT_SET_NO>999</ELEMENT_SET_NO><REV_AT_EPOCH>9507</REV_AT_EPOCH><BSTAR>.10276E-3</BSTAR><MEAN_MOTION_DOT>.55E-6</MEAN_MOTION_DOT><MEAN_MOTION_DDOT>0</MEAN_MOTION_DDOT></tleParameters></data></segment></body></omm>
<omm id="CCSDS_OMM_VERS" version="2.0">
<header><CREATION_DATE/><ORIGINATOR/></header><body><segment><metadata><OBJECT_NAME>ONEWEB-0582</OBJECT_NAME><OBJECT_ID>2022-166H</OBJECT_ID><CENTER_NAME>EARTH</CENTER_NAME><REF_FRAME>TEME</REF_FRAME><TIME_SYSTEM>UTC</TIME_SYSTEM><MEAN_ELEMENT_THEORY>SGP4</MEAN_ELEMENT_THEORY></metadata><data><meanElements><EPOCH>2024-11-12T02:24:59.195232</EPOCH><MEAN_MOTION>13.21829877</MEAN_MOTION><ECCENTRICITY>.000214</ECCENTRICITY><INCLINATION>87.9329</INCLINATION><RA_OF_ASC_NODE>359.9618</RA_OF_ASC_NODE><ARG_OF_PERICENTER>113.5492</ARG_OF_PERICENTER><MEAN_ANOMALY>246.5867</MEAN_ANOMALY></meanElements><tleParameters><EPHEMERIS_TYPE>0</EPHEMERIS_TYPE><CLASSIFICATION_TYPE>U</CLASSIFICATION_TYPE><NORAD_CAT_ID>54649</NORAD_CAT_ID><ELEMENT_SET_NO>999</ELEMENT_SET_NO><REV_AT_EPOCH>9509</REV_AT_EPOCH><BSTAR>-.15995E-4</BSTAR><MEAN_MOTION_DOT>.6E-7</MEAN_MOTION_DOT><MEAN_MOTION_DDOT>0</MEAN_MOTION_DDOT></tleParameters></data></segment></body></omm>
<omm id="CCSDS_OMM_VERS" version="2.0">
<header><CREATION_DATE/><ORIGINATOR/></header><body><segment><metadata><OBJECT_NAME>ONEWEB-0583</OBJECT_NAME><OBJECT_ID>2022-166J</OBJECT_ID><CENTER_NAME>EARTH</CENTER_NAME><REF_FRAME>TEME</REF_FRAME><TIME_SYSTEM>UTC</TIME_SYSTEM><MEAN_ELEMENT_THEORY>SGP4</MEAN_ELEMENT_THEORY></metadata><data><meanElements><EPOCH>2024-11-12T09:56:54.813120</EPOCH><MEAN_MOTION>13.21827267</MEAN_MOTION><ECCENTRICITY>.0001952</ECCENTRICITY><INCLINATION>87.9327</INCLINATION><RA_OF_ASC_NODE>359.8974</RA_OF_ASC_NODE><ARG_OF_PERICENTER>96.8860</ARG_OF_PERICENTER><MEAN_ANOMALY>263.2496</MEAN_ANOMALY></meanElements><tleParameters><EPHEMERIS_TYPE>0</EPHEMERIS_TYPE><CLASSIFICATION_TYPE>U</CLASSIFICATION_TYPE><NORAD_CAT_ID>54650</NORAD_CAT_ID><ELEMENT_SET_NO>999</ELEMENT_SET_NO><REV_AT_EPOCH>9515</REV_AT_EPOCH><BSTAR>.55771E-4</BSTAR><MEAN_MOTION_DOT>.36E-6</MEAN_MOTION_DOT><MEAN_MOTION_DDOT>0</MEAN_MOTION_DDOT></tleParameters></data></segment></body></omm>
<omm id="CCSDS_OMM_VERS" version="2.0">
<header><CREATION_DATE/><ORIGINATOR/></header><body><segment><metadata><OBJECT_NAME>ONEWEB-0584</OBJECT_NAME><OBJECT_ID>2022-166K</OBJECT_ID><CENTER_NAME>EARTH</CENTER_NAME><REF_FRAME>TEME</REF_FRAME><TIME_SYSTEM>UTC</TIME_SYSTEM><MEAN_ELEMENT_THEORY>SGP4</MEAN_ELEMENT_THEORY></metadata><data><meanElements><EPOCH>2024-11-12T08:37:25.936608</EPOCH><MEAN_MOTION>13.21827538</MEAN_MOTION><ECCENTRICITY>.0002028</ECCENTRICITY><INCLINATION>87.9331</INCLINATION><RA_OF_ASC_NODE>359.8815</RA_OF_ASC_NODE><ARG_OF_PERICENTER>110.8405</ARG_OF_PERICENTER><MEAN_ANOMALY>249.2947</MEAN_ANOMALY></meanElements><tleParameters><EPHEMERIS_TYPE>0</EPHEMERIS_TYPE><CLASSIFICATION_TYPE>U</CLASSIFICATION_TYPE><NORAD_CAT_ID>54651</NORAD_CAT_ID><ELEMENT_SET_NO>999</ELEMENT_SET_NO><REV_AT_EPOCH>9512</REV_AT_EPOCH><BSTAR>.10274E-3</BSTAR><MEAN_MOTION_DOT>.55E-6</MEAN_MOTION_DOT><MEAN_MOTION_DDOT>0</MEAN_MOTION_DDOT></tleParameters></data></segment></body></omm>
<omm id="CCSDS_OMM_VERS" version="2.0">
<header><CREATION_DATE/><ORIGINATOR/></header><body><segment><metadata><OBJECT_NAME>ONEWEB-0585</OBJECT_NAME><OBJECT_ID>2022-166L</OBJECT_ID><CENTER_NAME>EARTH</CENTER_NAME><REF_FRAME>TEME</REF_FRAME><TIME_SYSTEM>UTC</TIME_SYSTEM><MEAN_ELEMENT_THEORY>SGP4</MEAN_ELEMENT_THEORY></metadata><data><meanElements><EPOCH>2024-11-12T01:57:44.593632</EPOCH><MEAN_MOTION>13.21832693</MEAN_MOTION><ECCENTRICITY>.0001789</ECCENTRICITY><INCLINATION>87.9319</INCLINATION><RA_OF_ASC_NODE>359.9464</RA_OF_ASC_NODE><ARG_OF_PERICENTER>95.0194</ARG_OF_PERICENTER><MEAN_ANOMALY>265.1144</MEAN_ANOMALY></meanElements><tleParameters><EPHEMERIS_TYPE>0</EPHEMERIS_TYPE><CLASSIFICATION_TYPE>U</CLASSIFICATION_TYPE><NORAD_CAT_ID>54652</NORAD_CAT_ID><ELEMENT_SET_NO>999</ELEMENT_SET_NO><REV_AT_EPOCH>9509</REV_AT_EPOCH><BSTAR>.16409E-2</BSTAR><MEAN_MOTION_DOT>.691E-5</MEAN_MOTION_DOT><MEAN_MOTION_DDOT>0</MEAN_MOTION_DDOT></tleParameters></data></segment></body></omm>
<omm id="CCSDS_OMM_VERS" version="2.0">
<header><CREATION_DATE/><ORIGINATOR/></header><body><segment><metadata><OBJECT_NAME>ONEWEB-0586</OBJECT_NAME><OBJECT_ID>2022-166M</OBJECT_ID><CENTER_NAME>EARTH</CENTER_NAME><REF_FRAME>TEME</REF_FRAME><TIME_SYSTEM>UTC</TIME_SYSTEM><MEAN_ELEMENT_THEORY>SGP4</MEAN_ELEMENT_THEORY></metadata><data><meanElements><EPOCH>2024-11-12T09:31:56.931744</EPOCH><MEAN_MOTION>13.21825376</MEAN_MOTION><ECCENTRICITY>.0002043</ECCENTRICITY><INCLINATION>87.9328</INCLINATION><RA_OF_ASC_NODE>359.8918</RA_OF_ASC_NODE><ARG_OF_PERICENTER>101.4374</ARG_OF_PERICENTER><MEAN_ANOMALY>258.6990</MEAN_ANOMALY></meanElements><tleParameters><EPHEMERIS_TYPE>0</EPHEMERIS_TYPE><CLASSIFICATION_TYPE>U</CLASSIFICATION_TYPE><NORAD_CAT_ID>54653</NORAD_CAT_ID><ELEMENT_SET_NO>999</ELEMENT_SET_NO><REV_AT_EPOCH>9513</REV_AT_EPOCH><BSTAR>.18614E-3</BSTAR><MEAN_MOTION_DOT>.9E-6</MEAN_MOTION_DOT><MEAN_MOTION_DDOT>0</MEAN_MOTION_DDOT></tleParameters></data></segment></body></omm>
<omm id="CCSDS_OMM_VERS" version="2.0">
<header><CREATION_DATE/><ORIGINATOR/></header><body><segment><metadata><OBJECT_NAME>ONEWEB-0587</OBJECT_NAME><OBJECT_ID>2022-166N</OBJECT_ID><CENTER_NAME>EARTH</CENTER_NAME><REF_FRAME>TEME</REF_FRAME><TIME_SYSTEM>UTC</TIME_SYSTEM><MEAN_ELEMENT_THEORY>SGP4</MEAN_ELEMENT_THEORY></metadata><data><meanElements><EPOCH>2024-11-12T09:45:32.966784</EPOCH><MEAN_MOTION>13.21828955</MEAN_MOTION><ECCENTRICITY>.0001745</ECCENTRICITY><INCLINATION>87.9327</INCLINATION><RA_OF_ASC_NODE>359.8427</RA_OF_ASC_NODE><ARG_OF_PERICENTER>90.6055</ARG_OF_PERICENTER><MEAN_ANOMALY>269.5279</MEAN_ANOMALY></meanElements><tleParameters><EPHEMERIS_TYPE>0</EPHEMERIS_TYPE><CLASSIFICATION_TYPE>U</CLASSIFICATION_TYPE><NORAD_CAT_ID>54654</NORAD_CAT_ID><ELEMENT_SET_NO>999</ELEMENT_SET_NO><REV_AT_EPOCH>9528</REV_AT_EPOCH><BSTAR>.56937E-4</BSTAR><MEAN_MOTION_DOT>.37E-6</MEAN_MOTION_DOT><MEAN_MOTION_DDOT>0</MEAN_MOTION_DDOT></tleParameters></data></segment></body></omm>

</ndm>
